YAOGAN 23               
1 40305U 14071A   14342.45397017  .00010617  00000-0  52502-3 0   819
2 40305  97.3354 286.7574 0002309 126.8516  13.0021 15.17999738  3590
CZ-2C R/B               
1 40306U 14071B   14341.83834676  .00014260  00000-0  53847-3 0   303
2 40306  97.1388 285.6013 0022843 254.9936 104.8704 15.26863972  3515
CZ-2C DEB               
1 40307U 14071C   14342.53120660  .01834497  15088-2  83615-2 0   642
2 40307  97.0996 287.5500 0070298 206.1249 153.6405 15.80289965  3698
CZ-2C DEB               
1 40308U 14071D   14342.51790328  .00737281  00000-0  52738-2 0   522
2 40308  97.5068 288.6918 0086761 209.3681 150.2686 15.66968292  3680
CZ-2C DEB               
1 40309U 14071E   14341.79431014  .00040222  00000-0  27145-2 0   296
2 40309  97.1282 284.9149 0128745 125.3286 235.9642 14.99886061  3442
YAOGAN 24               
1 40310U 14072A   14342.51036309  .00001396  00000-0  20828-3 0   648
2 40310  97.9128  99.5977 0017742 157.9106 202.2880 14.76269102  2688
KUAIZHOU 2 (KZ-2)       
1 40311U 14073A   14342.47746446  .00265099  27951-4  76550-3 0   570
2 40311  96.5562  91.8722 0030987 296.7841 119.0471 15.92157997  2748
SOYUZ-TMA 15M           
1 40312U 14074A   14334.58703720  .00018277  00000-0  30871-3 0    69
2 40312  51.6481 354.5641 0007404  83.5665  60.4119 15.51651628  1049
COSMOS 2501 [GLONASS-K] 
1 40315U 14075A   14342.63674935 -.00000059  00000-0  00000+0 0   127
2 40315  64.8216 337.4851 0008571 307.1968 156.5482  2.12505461   173
FREGAT R/B              
1 40316U 14075B   14341.91497481 -.00000061  00000-0  00000+0 0    85
2 40316  64.8177 337.4994 0063959 128.6917  42.8790  2.08634960   147
DELTA 4 DEB             
1 40331U 14077C   14339.64685834  .00001658 -51995-5  00000+0 0    23
2 40331  28.8088  75.3760 0487889 152.3281 350.5163 15.12423772    08
2014-078A               
1 40332U 14078A   14341.78104137  .00000007  00000-0  00000+0 0    50
2 40332   6.0174 210.4123 7284015 178.5543  24.1118  2.27903691    12
2014-078B               
1 40333U 14078B   14341.78265925  .00000007  00000-0  00000+0 0    43
2 40333   6.0197 210.4171 7285294 178.5403  24.9910  2.27771920    12
2014-078C               
1 40334U 14078C   14341.77735539  .00000008  00000-0  00000+0 0    58
2 40334   6.0946 208.7150 7280444 180.1923  23.2100  2.28535766    10
2014-078D               
1 40335U 14078D   14341.77910752  .00000007  00000-0  00000+0 0    49
2 40335   6.0330 210.4275 7283009 178.5118  23.0213  2.28056237    17
CBERS-4                 
1 40336U 14079A   14342.43600251  .00009511  00000-0  27486-2 0    66
2 40336  98.5495  54.6380 0007208 258.4057 101.6280 14.44749193   174
CZ-4B R/B               
1 40337U 14079B   14342.19823133  .00014204  00000-0  11729-2 0    53
2 40337  98.4495  54.4252 0186071   8.3338 352.0893 14.86523652   145
